CCSDS_OMM_VERS = 2.0
CREATION_DATE  = 
ORIGINATOR     = 

OBJECT_NAME    = H-2A R/B
OBJECT_ID      = 2012-025E
CENTER_NAME    = EARTH
REF_FRAME      = TEME
TIME_SYSTEM    = UTC
MEAN_ELEMENT_THEORY = SGP/SGP4

EPOCH          = 2025-11-17T11:06:00.571968
MEAN_MOTION    = 14.94202593
ECCENTRICITY   = .0044685
INCLINATION    = 98.4549
RA_OF_ASC_NODE = 274.7543
ARG_OF_PERICENTER = 321.2673
MEAN_ANOMALY   = 38.5344

EPHEMERIS_TYPE = 0
CLASSIFICATION_TYPE = U
NORAD_CAT_ID   = 38341
ELEMENT_SET_NO = 999
REV_AT_EPOCH   = 73145
BSTAR          = .54233E-3
MEAN_MOTION_DOT = .5859E-4
MEAN_MOTION_DDOT = 0

CCSDS_OMM_VERS = 2.0
CREATION_DATE  = 
ORIGINATOR     = 

OBJECT_NAME    = SHIJIAN-16 (SJ-16)
OBJECT_ID      = 2013-057A
CENTER_NAME    = EARTH
REF_FRAME      = TEME
TIME_SYSTEM    = UTC
MEAN_ELEMENT_THEORY = SGP/SGP4

EPOCH          = 2025-11-17T12:32:54.982176
MEAN_MOTION    = 14.91878324
ECCENTRICITY   = .0016622
INCLINATION    = 74.9751
RA_OF_ASC_NODE = 37.3628
ARG_OF_PERICENTER = 20.4803
MEAN_ANOMALY   = 339.7048

EPHEMERIS_TYPE = 0
CLASSIFICATION_TYPE = U
NORAD_CAT_ID   = 39358
ELEMENT_SET_NO = 999
REV_AT_EPOCH   = 65477
BSTAR          = .30098E-3
MEAN_MOTION_DOT = .3022E-4
MEAN_MOTION_DDOT = 0

CCSDS_OMM_VERS = 2.0
CREATION_DATE  = 
ORIGINATOR     = 

OBJECT_NAME    = ALOS-2
OBJECT_ID      = 2014-029A
CENTER_NAME    = EARTH
REF_FRAME      = TEME
TIME_SYSTEM    = UTC
MEAN_ELEMENT_THEORY = SGP/SGP4

EPOCH          = 2025-11-17T12:23:01.155840
MEAN_MOTION    = 14.79473589
ECCENTRICITY   = .0001489
INCLINATION    = 97.9238
RA_OF_ASC_NODE = 56.7204
ARG_OF_PERICENTER = 99.3169
MEAN_ANOMALY   = 260.8211

EPHEMERIS_TYPE = 0
CLASSIFICATION_TYPE = U
NORAD_CAT_ID   = 39766
ELEMENT_SET_NO = 999
REV_AT_EPOCH   = 62028
BSTAR          = .39426E-3
MEAN_MOTION_DOT = .2894E-4
MEAN_MOTION_DDOT = 0

CCSDS_OMM_VERS = 2.0
CREATION_DATE  = 
ORIGINATOR     = 

OBJECT_NAME    = YAOGAN-29
OBJECT_ID      = 2015-069A
CENTER_NAME    = EARTH
REF_FRAME      = TEME
TIME_SYSTEM    = UTC
MEAN_ELEMENT_THEORY = SGP/SGP4

EPOCH          = 2025-11-17T12:22:00.518592
MEAN_MOTION    = 14.82843525
ECCENTRICITY   = .0001892
INCLINATION    = 98.0245
RA_OF_ASC_NODE = 344.6030
ARG_OF_PERICENTER = 39.2429
MEAN_ANOMALY   = 320.8921

EPHEMERIS_TYPE = 0
CLASSIFICATION_TYPE = U
NORAD_CAT_ID   = 41038
ELEMENT_SET_NO = 999
REV_AT_EPOCH   = 53925
BSTAR          = .11781E-3
MEAN_MOTION_DOT = .899E-5
MEAN_MOTION_DDOT = 0

CCSDS_OMM_VERS = 2.0
CREATION_DATE  = 
ORIGINATOR     = 

OBJECT_NAME    = ASTRO-H (HITOMI)
OBJECT_ID      = 2016-012A
CENTER_NAME    = EARTH
REF_FRAME      = TEME
TIME_SYSTEM    = UTC
MEAN_ELEMENT_THEORY = SGP/SGP4

EPOCH          = 2025-11-17T10:13:29.943264
MEAN_MOTION    = 15.09135467
ECCENTRICITY   = .0009862
INCLINATION    = 31.0013
RA_OF_ASC_NODE = 0.5319
ARG_OF_PERICENTER = 282.6272
MEAN_ANOMALY   = 77.3263

EPHEMERIS_TYPE = 0
CLASSIFICATION_TYPE = U
NORAD_CAT_ID   = 41337
ELEMENT_SET_NO = 999
REV_AT_EPOCH   = 53525
BSTAR          = .28316E-3
MEAN_MOTION_DOT = .4702E-4
MEAN_MOTION_DDOT = 0

CCSDS_OMM_VERS = 2.0
CREATION_DATE  = 
ORIGINATOR     = 

OBJECT_NAME    = HXMT (HUIYAN)
OBJECT_ID      = 2017-034A
CENTER_NAME    = EARTH
REF_FRAME      = TEME
TIME_SYSTEM    = UTC
MEAN_ELEMENT_THEORY = SGP/SGP4

EPOCH          = 2025-11-17T08:38:11.369184
MEAN_MOTION    = 15.15887629
ECCENTRICITY   = .003404
INCLINATION    = 43.0146
RA_OF_ASC_NODE = 280.4304
ARG_OF_PERICENTER = 245.7902
MEAN_ANOMALY   = 113.9387

EPHEMERIS_TYPE = 0
CLASSIFICATION_TYPE = U
NORAD_CAT_ID   = 42758
ELEMENT_SET_NO = 999
REV_AT_EPOCH   = 46548
BSTAR          = .58375E-3
MEAN_MOTION_DOT = .11325E-3
MEAN_MOTION_DDOT = 0

CCSDS_OMM_VERS = 2.0
CREATION_DATE  = 
ORIGINATOR     = 

OBJECT_NAME    = CZ-2C R/B
OBJECT_ID      = 2018-054D
CENTER_NAME    = EARTH
REF_FRAME      = TEME
TIME_SYSTEM    = UTC
MEAN_ELEMENT_THEORY = SGP/SGP4

EPOCH          = 2025-11-15T11:21:13.405248
MEAN_MOTION    = 15.68206449
ECCENTRICITY   = .00237531
INCLINATION    = 35.1363
RA_OF_ASC_NODE = 4.9515
ARG_OF_PERICENTER = 236.2570
MEAN_ANOMALY   = 123.5897

EPHEMERIS_TYPE = 0
CLASSIFICATION_TYPE = U
NORAD_CAT_ID   = 43521
ELEMENT_SET_NO = 999
REV_AT_EPOCH   = 41076
BSTAR          = .78300325E-3
MEAN_MOTION_DOT = .9306E-3
MEAN_MOTION_DDOT = 0

CCSDS_OMM_VERS = 2.0
CREATION_DATE  = 
ORIGINATOR     = 

OBJECT_NAME    = SAOCOM 1A
OBJECT_ID      = 2018-076A
CENTER_NAME    = EARTH
REF_FRAME      = TEME
TIME_SYSTEM    = UTC
MEAN_ELEMENT_THEORY = SGP/SGP4

EPOCH          = 2025-11-17T11:46:14.162880
MEAN_MOTION    = 14.82174316
ECCENTRICITY   = .0001383
INCLINATION    = 97.8860
RA_OF_ASC_NODE = 146.2792
ARG_OF_PERICENTER = 90.5925
MEAN_ANOMALY   = 269.5447

EPHEMERIS_TYPE = 0
CLASSIFICATION_TYPE = U
NORAD_CAT_ID   = 43641
ELEMENT_SET_NO = 999
REV_AT_EPOCH   = 38474
BSTAR          = .12084E-3
MEAN_MOTION_DOT = .91E-5
MEAN_MOTION_DDOT = 0

CCSDS_OMM_VERS = 2.0
CREATION_DATE  = 
ORIGINATOR     = 

OBJECT_NAME    = H-2A R/B
OBJECT_ID      = 2018-084L
CENTER_NAME    = EARTH
REF_FRAME      = TEME
TIME_SYSTEM    = UTC
MEAN_ELEMENT_THEORY = SGP/SGP4

EPOCH          = 2025-11-17T11:50:54.797856
MEAN_MOTION    = 15.36200213
ECCENTRICITY   = .0029034
INCLINATION    = 98.8790
RA_OF_ASC_NODE = 150.3657
ARG_OF_PERICENTER = 52.1572
MEAN_ANOMALY   = 308.2288

EPHEMERIS_TYPE = 0
CLASSIFICATION_TYPE = U
NORAD_CAT_ID   = 43682
ELEMENT_SET_NO = 999
REV_AT_EPOCH   = 38852
BSTAR          = .71846E-3
MEAN_MOTION_DOT = .25653E-3
MEAN_MOTION_DDOT = 0

CCSDS_OMM_VERS = 2.0
CREATION_DATE  = 
ORIGINATOR     = 

OBJECT_NAME    = SAOCOM 1B
OBJECT_ID      = 2020-059A
CENTER_NAME    = EARTH
REF_FRAME      = TEME
TIME_SYSTEM    = UTC
MEAN_ELEMENT_THEORY = SGP/SGP4

EPOCH          = 2025-11-17T12:31:16.170816
MEAN_MOTION    = 14.82146113
ECCENTRICITY   = .0001338
INCLINATION    = 97.8849
RA_OF_ASC_NODE = 145.4118
ARG_OF_PERICENTER = 89.6111
MEAN_ANOMALY   = 270.5255

EPHEMERIS_TYPE = 0
CLASSIFICATION_TYPE = U
NORAD_CAT_ID   = 46265
ELEMENT_SET_NO = 999
REV_AT_EPOCH   = 28213
BSTAR          = .44364E-4
MEAN_MOTION_DOT = .301E-5
MEAN_MOTION_DDOT = 0

CCSDS_OMM_VERS = 2.0
CREATION_DATE  = 
ORIGINATOR     = 

OBJECT_NAME    = CSS (TIANHE)
OBJECT_ID      = 2021-035A
CENTER_NAME    = EARTH
REF_FRAME      = TEME
TIME_SYSTEM    = UTC
MEAN_ELEMENT_THEORY = SGP/SGP4

EPOCH          = 2025-11-17T11:18:58.569408
MEAN_MOTION    = 15.59218103
ECCENTRICITY   = .0006881
INCLINATION    = 41.4655
RA_OF_ASC_NODE = 170.0240
ARG_OF_PERICENTER = 181.9372
MEAN_ANOMALY   = 178.1441

EPHEMERIS_TYPE = 0
CLASSIFICATION_TYPE = U
NORAD_CAT_ID   = 48274
ELEMENT_SET_NO = 999
REV_AT_EPOCH   = 26008
BSTAR          = .4026E-3
MEAN_MOTION_DOT = .3233E-3
MEAN_MOTION_DDOT = 0

