H-2A R/B                
1 38341U 12025E   25321.46250662  .00005859  00000+0  54233-3 0  9999
2 38341  98.4549 274.7543 0044685 321.2673  38.5344 14.94202593731459
SHIJIAN-16 (SJ-16)      
1 39358U 13057A   25321.52285859  .00003022  00000+0  30098-3 0  9990
2 39358  74.9751  37.3628 0016622  20.4803 339.7048 14.91878324654776
ALOS-2                  
1 39766U 14029A   25321.51598560  .00002894  00000+0  39426-3 0  9998
2 39766  97.9238  56.7204 0001489  99.3169 260.8211 14.79473589620289
YAOGAN-29               
1 41038U 15069A   25321.51528378  .00000899  00000+0  11781-3 0  9995
2 41038  98.0245 344.6030 0001892  39.2429 320.8921 14.82843525539256
ASTRO-H (HITOMI)        
1 41337U 16012A   25321.42604101  .00004702  00000+0  28316-3 0  9994
2 41337  31.0013   0.5319 0009862 282.6272  77.3263 15.09135467535259
HXMT (HUIYAN)           
1 42758U 17034A   25321.35985381  .00011325  00000+0  58375-3 0  9998
2 42758  43.0146 280.4304 0034040 245.7902 113.9387 15.15887629465488
CZ-2C R/B               
1 43521U 18054D   25319.47307182  .00093060  00000+0  78300-3 0  9993
2 43521  35.1363   4.9515 0023753 236.2570 123.5897 15.68206449410765
SAOCOM 1A               
1 43641U 18076A   25321.49044170  .00000910  00000+0  12084-3 0  9999
2 43641  97.8860 146.2792 0001383  90.5925 269.5447 14.82174316384744
H-2A R/B                
1 43682U 18084L   25321.49368979  .00025653  00000+0  71846-3 0  9991
2 43682  98.8790 150.3657 0029034  52.1572 308.2288 15.36200213388523
SAOCOM 1B               
1 46265U 20059A   25321.52171494  .00000301  00000+0  44364-4 0  9993
2 46265  97.8849 145.4118 0001338  89.6111 270.5255 14.82146113282138
CSS (TIANHE)            
1 48274U 21035A   25321.47151122  .00032330  00000+0  40260-3 0  9997
2 48274  41.4655 170.0240 0006881 181.9372 178.1441 15.59218103260087
